[Satellite]
VERSION=1.1
NAME=COSMOS 2477 (745)
NICKNAME=COSMOS 2477 (745)
TLE1=1 37868U 11064B   17186.06748267  .00000091  00000-0  00000-0 0  9997
TLE2=2 37868  64.4942 183.6530 0018113 248.6098 259.8147  2.13101863 44100
